{
  "norad_id": 68625,
  "name": "STARLINK-37249",
  "history": [
    {
      "epoch": "2026-04-16T22:00:54.814176Z",
      "apogee_km": 328.068500613831,
      "perigee_km": 325.57358572596786,
      "latitude_deg": -5.8929191157854964e-05,
      "longitude_deg": 129.2802835128228,
      "height_km": 329.0672149589684,
      "semi_major_axis_km": 6704.9580431699,
      "eccentricity": 0.00018605,
      "inclination_deg": 97.285,
      "raan_deg": 304.5668,
      "arg_perigee_deg": 41.925,
      "mean_anomaly_deg": 318.216,
      "mean_motion_rev_day": 15.81279589
    }
  ]
}