STARLINK-37249          
1 68625U 26073Z   26106.91730109 -.00760646  00000+0 -42357-2 0  9993
2 68625  97.2850 304.5668 0001860  41.9250 318.2160 15.81279589  1577
